[
    {
        "Altitude(m)": 612502.1900707298,
        "Argument of Periapsis(deg)": 0.0,
        "Eccentricity": 0.0,
        "Inclination(deg)": 60.0,
        "Latitude(deg)": -28.135958464038108,
        "Longitude(deg)": 122.1482231475127,
        "Mean Anomaly(deg)": -32.72730000000001,
        "RAAN(deg)": 240.0,
        "Satellite Name": "Test1 1076",
        "Satellite Number": 1076,
        "Semi-Major Axis(m)": 6980739.136638005,
        "Time(s)": 0
    },
    {
        "Altitude(m)": 612308.6381075723,
        "Argument of Periapsis(deg)": 0.00010418945913296404,
        "Eccentricity": 0.0,
        "Inclination(deg)": 60.0,
        "Latitude(deg)": -27.62301407355572,
        "Longitude(deg)": 122.5016978124773,
        "Mean Anomaly(deg)": -32.10719385453816,
        "RAAN(deg)": 239.99957995086024,
        "Satellite Name": "Test1 1076",
        "Satellite Number": 1076,
        "Semi-Major Axis(m)": 6980739.136638005,
        "Time(s)": 10
    }
]